NORAD_CAT_ID,OBJECT_NAME,OBJECT_TYPE,EPOCH,MEAN_MOTION,ECCENTRICITY,INCLINATION,RA_OF_ASC_NODE,ARG_OF_PERICENTER,MEAN_ANOMALY,BSTAR,MEAN_MOTION_DOT,MEAN_MOTION_DDOT,TLE_LINE0,TLE_LINE1,TLE_LINE2,SEMIMAJOR_AXIS,PERIOD,APOGEE,PERIGEE,DECAYED
55643.0,STARLINK-5483,PAYLOAD,2023-12-06 13:00:49,14.98340152,0.0002937,69.9994,102.3633,258.4267,101.6563,5.9614e-05,6.19e-06,0.0,0 STARLINK-5483,1 55643U 23021R   23340.54223798  .00000619  00000-0  59614-4 0  9998,2 55643  69.9994 102.3633 0002937 258.4267 101.6563 14.98340152 45349,6950.161,96.106,574.068,569.985,0.0
55643.0,STARLINK-5483,PAYLOAD,2023-12-07 11:26:42,14.98336585,0.0003358,70.0001,100.0111,271.8825,88.1949,-9.1638e-05,-1.186e-05,0.0,0 STARLINK-5483,1 55643U 23021R   23341.47688106 -.00001186  00000-0 -91638-4 0  9993,2 55643  70.0001 100.0111 0003358 271.8825  88.1949 14.98336585 45188,6950.173,96.107,574.371,569.704,0.0
55643.0,STARLINK-5483,PAYLOAD,2023-12-07 13:02:50,14.98334936,0.0002728,70.0012,99.8432,250.5127,109.5737,-7.148e-05,-9.46e-06,0.0,0 STARLINK-5483,1 55643U 23021R   23341.54364006 -.00000946  00000-0 -71480-4 0  9997,2 55643  70.0012  99.8432 0002728 250.5127 109.5737 14.98334936 45495,6950.178,96.107,573.939,570.147,0.0
55643.0,STARLINK-5483,PAYLOAD,2023-12-08 11:28:42,14.98386295,0.0002459,70.0025,97.4919,225.9824,134.1132,-0.00088376,-0.00010637,0.0,0 STARLINK-5483,1 55643U 23021R   23342.47826703 -.00010637  00000-0 -88376-3 0  9996,2 55643  70.0025  97.4919 0002459 225.9824 134.1132 14.98386295 45335,6950.019,96.103,573.593,570.175,0.0
55643.0,STARLINK-5483,PAYLOAD,2023-12-08 13:04:51,14.98326607,0.0002669,70.0028,97.3215,228.6542,131.4388,-0.00010303,-1.322e-05,0.0,0 STARLINK-5483,1 55643U 23021R   23342.54503871 -.00001322  00000-0 -10303-3 0  9998,2 55643  70.0028  97.3215 0002669 228.6542 131.4388 14.98326607 45644,6950.203,96.107,573.923,570.213,0.0
55643.0,STARLINK-5483,PAYLOAD,2023-12-08 17:53:15,14.98327351,0.0002766,70.0011,96.8128,259.9479,100.1368,-0.00010528,-1.349e-05,0.0,0 STARLINK-5483,1 55643U 23021R   23342.74531966 -.00001349  00000-0 -10528-3 0  9994,2 55643  70.0011  96.8128 0002766 259.9479 100.1368 14.98327351 45375,6950.201,96.107,573.989,570.144,0.0
55643.0,STARLINK-5483,PAYLOAD,2023-12-09 11:30:43,14.98329419,0.0002989,70.0001,94.9607,266.3887,93.693,-1.9637e-06,-1.16e-06,0.0,0 STARLINK-5483,1 55643U 23021R   23343.47967534 -.00000116  00000-0 -19637-5 0  9992,2 55643  70.0001  94.9607 0002989 266.3887  93.6930 14.98329419 45780,6950.195,96.107,574.137,569.982,0.0
55643.0,STARLINK-5483,PAYLOAD,2023-12-10 14:45:00,14.98328441,0.0003182,70.0,92.0991,270.5258,89.5536,3.4783e-05,3.22e-06,0.0,0 STARLINK-5483,1 55643U 23021R   23344.61459415  .00000322  00000-0  34783-4 0  9998,2 55643  70.0000  92.0991 0003182 270.5258  89.5536 14.98328441 45958,6950.198,96.107,574.274,569.851,0.0
55643.0,STARLINK-5483,PAYLOAD,2023-12-10 16:21:09,14.98328397,0.0003188,69.9999,91.9308,270.7259,89.3535,3.2818e-05,2.99e-06,0.0,0 STARLINK-5483,1 55643U 23021R   23344.68135429  .00000299  00000-0  32818-4 0  9991,2 55643  69.9999  91.9308 0003188 270.7259  89.3535 14.98328397 45666,6950.198,96.107,574.279,569.847,0.0
55643.0,STARLINK-5483,PAYLOAD,2023-12-11 14:47:01,14.98331407,0.0003067,70.0,89.5741,268.1751,91.9057,1.211e-05,5.1e-07,0.0,0 STARLINK-5483,1 55643U 23021R   23345.61599283  .00000051  00000-0  12110-4 0  9996,2 55643  70.0000  89.5741 0003067 268.1751  91.9057 14.98331407 46104,6950.189,96.107,574.185,569.922,0.0
55643.0,STARLINK-5483,PAYLOAD,2023-12-11 16:23:09,14.98331754,0.0003062,70.0001,89.4059,268.0936,91.9872,1.6362e-05,1.02e-06,0.0,0 STARLINK-5483,1 55643U 23021R   23345.68275241  .00000102  00000-0  16362-4 0  9998,2 55643  70.0001  89.4059 0003062 268.0936  91.9872 14.98331754 45812,6950.187,96.107,574.181,569.924,0.0
55643.0,STARLINK-5483,PAYLOAD,2023-12-12 13:12:54,14.98329226,0.0002965,70.0002,87.2187,265.7449,94.3371,1.6669e-05,1.06e-06,0.0,0 STARLINK-5483,1 55643U 23021R   23346.55063368  .00000106  00000-0  16669-4 0  9994,2 55643  70.0002  87.2187 0002965 265.7449  94.3371 14.98329226 46245,6950.195,96.107,574.121,570.0,0.0
55643.0,STARLINK-5483,PAYLOAD,2023-12-12 16:25:10,14.98329729,0.0002947,70.0003,86.882,265.2485,94.8338,1.9979e-05,1.45e-06,0.0,0 STARLINK-5483,1 55643U 23021R   23346.68415308  .00000145  00000-0  19979-4 0  9993,2 55643  70.0003  86.8820 0002947 265.2485  94.8338 14.98329729 45964,6950.194,96.107,574.107,570.011,0.0
55643.0,STARLINK-5483,PAYLOAD,2023-12-13 11:38:45,14.98352007,0.0002759,70.0009,84.8624,257.381,102.7041,0.00023146,2.671e-05,0.0,0 STARLINK-5483,1 55643U 23021R   23347.48525031  .00002671  00000-0  23146-3 0  9993,2 55643  70.0009  84.8624 0002759 257.3810 102.7041 14.98352007 46084,6950.125,96.106,573.907,570.072,0.0
55643.0,STARLINK-5483,PAYLOAD,2023-12-13 14:51:02,14.98343867,0.0002356,70.003,84.5287,230.9821,129.1128,0.00017199,1.961e-05,0.0,0 STARLINK-5483,1 55643U 23021R   23347.61877482  .00001961  00000-0  17199-3 0  9990,2 55643  70.0030  84.5287 0002356 230.9821 129.1128 14.98343867 46401,6950.15,96.106,573.652,570.378,0.0
55643.0,STARLINK-5483,PAYLOAD,2023-12-13 16:27:09,14.98353411,0.0002947,70.0004,84.3569,263.9201,96.1622,0.00022302,2.571e-05,0.0,0 STARLINK-5483,1 55643U 23021R   23347.68552707  .00002571  00000-0  22302-3 0  9997,2 55643  70.0004  84.3569 0002947 263.9201  96.1622 14.98353411 46416,6950.12,96.105,574.034,569.937,0.0
55643.0,STARLINK-5483,PAYLOAD,2023-12-14 11:40:48,14.98321953,0.0003316,69.9997,82.3376,269.3734,90.7045,-0.00014431,-1.814e-05,0.0,0 STARLINK-5483,1 55643U 23021R   23348.48667571 -.00001814  00000-0 -14431-3 0  9997,2 55643  69.9997  82.3376 0003316 269.3734  90.7045 14.98321953 46235,6950.218,96.108,574.387,569.778,0.0
55643.0,STARLINK-5483,PAYLOAD,2023-12-14 13:16:56,14.98320658,0.0003289,69.9996,82.1687,268.1929,91.8853,-0.00015173,-1.903e-05,0.0,0 STARLINK-5483,1 55643U 23021R   23348.55343700 -.00001903  00000-0 -15173-3 0  9993,2 55643  69.9996  82.1687 0003289 268.1929  91.8853 14.98320658 46543,6950.222,96.108,574.373,569.801,0.0
55643.0,STARLINK-5483,PAYLOAD,2023-12-14 16:29:13,14.98320674,0.0003233,69.9998,81.8327,266.0792,93.9998,-0.00014223,-1.789e-05,0.0,0 STARLINK-5483,1 55643U 23021R   23348.68695727 -.00001789  00000-0 -14223-3 0  9993,2 55643  69.9998  81.8327 0003233 266.0792  93.9998 14.98320674 46569,6950.222,96.108,574.334,569.84,0.0
55643.0,STARLINK-5483,PAYLOAD,2023-12-15 10:06:41,14.98339159,0.0003367,69.9995,79.9797,270.8635,89.2138,-0.00024543,-3.021e-05,0.0,0 STARLINK-5483,1 55643U 23021R   23349.42131072 -.00003021  00000-0 -24543-3 0  9991,2 55643  69.9995  79.9797 0003367 270.8635  89.2138 14.98339159 46373,6950.165,96.106,574.37,569.689,0.0
55643.0,STARLINK-5483,PAYLOAD,2023-12-15 13:18:57,14.98345344,0.0002968,69.9994,79.6431,256.1953,103.8876,-0.00029946,-3.666e-05,0.0,0 STARLINK-5483,1 55643U 23021R   23349.55482735 -.00003666  00000-0 -29946-3 0  9997,2 55643  69.9994  79.6431 0002968 256.1953 103.8876 14.98345344 46690,6950.145,96.106,574.073,569.948,0.0
55643.0,STARLINK-5483,PAYLOAD,2023-12-15 16:31:12,14.98343942,0.0003336,69.9995,79.3069,269.2131,90.8646,-0.00017765,-2.213e-05,0.0,0 STARLINK-5483,1 55643U 23021R   23349.68834416 -.00002213  00000-0 -17765-3 0  9991,2 55643  69.9995  79.3069 0003336 269.2131  90.8646 14.98343942 46410,6950.15,96.106,574.333,569.696,0.0
55643.0,STARLINK-5483,PAYLOAD,2023-12-16 11:44:50,14.98323874,0.0003114,70.0001,77.2873,267.7484,92.3318,0.00015431,1.748e-05,0.0,0 STARLINK-5483,1 55643U 23021R   23350.48946868  .00001748  00000-0  15431-3 0  9994,2 55643  70.0001  77.2873 0003114 267.7484  92.3318 14.98323874 46537,6950.212,96.107,574.241,569.913,0.0
55643.0,STARLINK-5483,PAYLOAD,2023-12-16 13:20:58,14.98325871,0.0003075,70.0001,77.119,266.3437,93.737,0.00017509,1.997e-05,0.0,0 STARLINK-5483,1 55643U 23021R   23350.55622694  .00001997  00000-0  17509-3 0  9994,2 55643  70.0001  77.1190 0003075 266.3437  93.7370 14.98325871 46843,6950.206,96.107,574.208,569.933,0.0
55643.0,STARLINK-5483,PAYLOAD,2023-12-16 16:33:14,14.9832731,0.0003076,70.0001,76.7824,266.6298,93.451,0.00018183,2.077e-05,0.0,0 STARLINK-5483,1 55643U 23021R   23350.68974611  .00002077  00000-0  18183-3 0  9996,2 55643  70.0001  76.7824 0003076 266.6298  93.4510 14.98327310 46866,6950.201,96.107,574.204,569.928,0.0
55643.0,STARLINK-5483,PAYLOAD,2023-12-17 11:46:51,14.9832413,0.0002837,70.0008,74.7635,258.6602,101.4238,-3.5523e-05,-5.17e-06,0.0,0 STARLINK-5483,1 55643U 23021R   23351.49087600 -.00000517  00000-0 -35523-4 0  9996,2 55643  70.0008  74.7635 0002837 258.6602 101.4238 14.98324130 46689,6950.211,96.107,574.048,570.104,0.0
55643.0,STARLINK-5483,PAYLOAD,2023-12-17 13:22:59,14.98324443,0.000283,70.0008,74.5952,258.3356,101.7485,-3.0865e-05,-4.61e-06,0.0,0 STARLINK-5483,1 55643U 23021R   23351.55763585 -.00000461  00000-0 -30865-4 0  9998,2 55643  70.0008  74.5952 0002830 258.3356 101.7485 14.98324443 46993,6950.21,96.107,574.042,570.108,0.0
55643.0,STARLINK-5483,PAYLOAD,2023-12-17 16:35:15,14.98331181,0.000309,70.0002,74.2578,261.2988,98.7822,3.0285e-05,2.68e-06,0.0,0 STARLINK-5483,1 55643U 23021R   23351.69115000  .00000268  00000-0  30285-4 0  9995,2 55643  70.0002  74.2578 0003090 261.2988  98.7822 14.98331181 46718,6950.189,96.107,574.202,569.907,0.0
55643.0,STARLINK-5483,PAYLOAD,2023-12-18 13:24:59,14.98342359,0.0002932,70.0004,72.0701,255.4338,104.6496,7.997e-05,8.62e-06,0.0,0 STARLINK-5483,1 55643U 23021R   23352.55901831  .00000862  00000-0  79970-4 0  9990,2 55643  70.0004  72.0701 0002932 255.4338 104.6496 14.98342359 47143,6950.155,96.106,574.057,569.982,0.0
55643.0,STARLINK-5483,PAYLOAD,2023-12-18 15:01:07,14.98344327,0.0002906,70.0006,71.9024,253.7303,106.3537,7.7204e-05,8.29e-06,0.0,0 STARLINK-5483,1 55643U 23021R   23352.62577658  .00000829  00000-0  77204-4 0  9995,2 55643  70.0006  71.9024 0002906 253.7303 106.3537 14.98344327 46854,6950.149,96.106,574.033,569.994,0.0
